CCSDS_OMM_VERS = 2.0
CREATION_DATE  = 
ORIGINATOR     = 

OBJECT_NAME    = ERS-1
OBJECT_ID      = 1991-050A
CENTER_NAME    = EARTH
REF_FRAME      = TEME
TIME_SYSTEM    = UTC
MEAN_ELEMENT_THEORY = SGP/SGP4

EPOCH          = 2026-03-19T21:58:12.986976
MEAN_MOTION    = 14.39456688
ECCENTRICITY   = .00321929
INCLINATION    = 98.7874
RA_OF_ASC_NODE = 97.4068
ARG_OF_PERICENTER = 170.0339
MEAN_ANOMALY   = 190.1493

EPHEMERIS_TYPE = 0
CLASSIFICATION_TYPE = U
NORAD_CAT_ID   = 21574
ELEMENT_SET_NO = 999
REV_AT_EPOCH   = 81720
BSTAR          = .92954657E-4
MEAN_MOTION_DOT = .245E-5
MEAN_MOTION_DDOT = 0

CCSDS_OMM_VERS = 2.0
CREATION_DATE  = 
ORIGINATOR     = 

OBJECT_NAME    = ARIANE 40 R/B
OBJECT_ID      = 1991-050F
CENTER_NAME    = EARTH
REF_FRAME      = TEME
TIME_SYSTEM    = UTC
MEAN_ELEMENT_THEORY = SGP/SGP4

EPOCH          = 2026-03-19T17:36:58.922784
MEAN_MOTION    = 14.42900485
ECCENTRICITY   = .00040253
INCLINATION    = 98.1991
RA_OF_ASC_NODE = 130.5926
ARG_OF_PERICENTER = 59.2133
MEAN_ANOMALY   = 300.9453

EPHEMERIS_TYPE = 0
CLASSIFICATION_TYPE = U
NORAD_CAT_ID   = 21610
ELEMENT_SET_NO = 999
REV_AT_EPOCH   = 82044
BSTAR          = .80428338E-4
MEAN_MOTION_DOT = .227E-5
MEAN_MOTION_DDOT = 0

CCSDS_OMM_VERS = 2.0
CREATION_DATE  = 
ORIGINATOR     = 

OBJECT_NAME    = INTERCOSMOS 25
OBJECT_ID      = 1991-086A
CENTER_NAME    = EARTH
REF_FRAME      = TEME
TIME_SYSTEM    = UTC
MEAN_ELEMENT_THEORY = SGP/SGP4

EPOCH          = 2026-03-19T15:30:39.556224
MEAN_MOTION    = 12.12033886
ECCENTRICITY   = .14868283
INCLINATION    = 82.6036
RA_OF_ASC_NODE = 303.9901
ARG_OF_PERICENTER = 95.4818
MEAN_ANOMALY   = 281.7071

EPHEMERIS_TYPE = 0
CLASSIFICATION_TYPE = U
NORAD_CAT_ID   = 21819
ELEMENT_SET_NO = 999
REV_AT_EPOCH   = 49789
BSTAR          = .29057849E-3
MEAN_MOTION_DOT = .152E-4
MEAN_MOTION_DDOT = 0

CCSDS_OMM_VERS = 2.0
CREATION_DATE  = 
ORIGINATOR     = 

OBJECT_NAME    = SL-8 R/B
OBJECT_ID      = 1992-008B
CENTER_NAME    = EARTH
REF_FRAME      = TEME
TIME_SYSTEM    = UTC
MEAN_ELEMENT_THEORY = SGP/SGP4

EPOCH          = 2026-03-19T21:53:27.036672
MEAN_MOTION    = 13.75969643
ECCENTRICITY   = .00358734
INCLINATION    = 82.9223
RA_OF_ASC_NODE = 260.1717
ARG_OF_PERICENTER = 105.6760
MEAN_ANOMALY   = 4.6014

EPHEMERIS_TYPE = 0
CLASSIFICATION_TYPE = U
NORAD_CAT_ID   = 21876
ELEMENT_SET_NO = 999
REV_AT_EPOCH   = 71082
BSTAR          = -.1172157E-4
MEAN_MOTION_DOT = .4E-7
MEAN_MOTION_DDOT = 0

CCSDS_OMM_VERS = 2.0
CREATION_DATE  = 
ORIGINATOR     = 

OBJECT_NAME    = SL-8 R/B
OBJECT_ID      = 1992-020B
CENTER_NAME    = EARTH
REF_FRAME      = TEME
TIME_SYSTEM    = UTC
MEAN_ELEMENT_THEORY = SGP/SGP4

EPOCH          = 2026-03-19T16:14:20.367168
MEAN_MOTION    = 13.75550179
ECCENTRICITY   = .00275431
INCLINATION    = 82.9321
RA_OF_ASC_NODE = 146.3473
ARG_OF_PERICENTER = 269.5873
MEAN_ANOMALY   = 246.2146

EPHEMERIS_TYPE = 0
CLASSIFICATION_TYPE = U
NORAD_CAT_ID   = 21938
ELEMENT_SET_NO = 999
REV_AT_EPOCH   = 70250
BSTAR          = .3980618E-4
MEAN_MOTION_DOT = .53E-6
MEAN_MOTION_DDOT = 0

CCSDS_OMM_VERS = 2.0
CREATION_DATE  = 
ORIGINATOR     = 

OBJECT_NAME    = USA 81
OBJECT_ID      = 1992-023A
CENTER_NAME    = EARTH
REF_FRAME      = TEME
TIME_SYSTEM    = UTC
MEAN_ELEMENT_THEORY = SGP/SGP4

EPOCH          = 2026-03-19T08:51:23.143104
MEAN_MOTION    = 14.32371033
ECCENTRICITY   = .00021821
INCLINATION    = 85.0066
RA_OF_ASC_NODE = 125.8563
ARG_OF_PERICENTER = 70.6968
MEAN_ANOMALY   = 289.4460

EPHEMERIS_TYPE = 0
CLASSIFICATION_TYPE = U
NORAD_CAT_ID   = 21949
ELEMENT_SET_NO = 999
REV_AT_EPOCH   = 9617
BSTAR          = .54457238E-4
MEAN_MOTION_DOT = .167E-5
MEAN_MOTION_DDOT = 0

CCSDS_OMM_VERS = 2.0
CREATION_DATE  = 
ORIGINATOR     = 

OBJECT_NAME    = COSMOS 2219
OBJECT_ID      = 1992-076A
CENTER_NAME    = EARTH
REF_FRAME      = TEME
TIME_SYSTEM    = UTC
MEAN_ELEMENT_THEORY = SGP/SGP4

EPOCH          = 2026-03-19T22:04:03.509184
MEAN_MOTION    = 14.14093180
ECCENTRICITY   = .00183853
INCLINATION    = 71.0640
RA_OF_ASC_NODE = 356.6852
ARG_OF_PERICENTER = 192.6943
MEAN_ANOMALY   = 167.3719

EPHEMERIS_TYPE = 0
CLASSIFICATION_TYPE = U
NORAD_CAT_ID   = 22219
ELEMENT_SET_NO = 999
REV_AT_EPOCH   = 71982
BSTAR          = -.50617306E-4
MEAN_MOTION_DOT = -.144E-5
MEAN_MOTION_DDOT = 0

CCSDS_OMM_VERS = 2.0
CREATION_DATE  = 
ORIGINATOR     = 

OBJECT_NAME    = SL-16 R/B
OBJECT_ID      = 1992-076B
CENTER_NAME    = EARTH
REF_FRAME      = TEME
TIME_SYSTEM    = UTC
MEAN_ELEMENT_THEORY = SGP/SGP4

EPOCH          = 2026-03-19T17:50:30.719904
MEAN_MOTION    = 14.16860856
ECCENTRICITY   = .00106198
INCLINATION    = 71.0006
RA_OF_ASC_NODE = 167.1976
ARG_OF_PERICENTER = 77.7650
MEAN_ANOMALY   = 93.8870

EPHEMERIS_TYPE = 0
CLASSIFICATION_TYPE = U
NORAD_CAT_ID   = 22220
ELEMENT_SET_NO = 999
REV_AT_EPOCH   = 72325
BSTAR          = .1602201E-3
MEAN_MOTION_DOT = .274E-5
MEAN_MOTION_DDOT = 0

CCSDS_OMM_VERS = 2.0
CREATION_DATE  = 
ORIGINATOR     = 

OBJECT_NAME    = COSMOS 2221
OBJECT_ID      = 1992-080A
CENTER_NAME    = EARTH
REF_FRAME      = TEME
TIME_SYSTEM    = UTC
MEAN_ELEMENT_THEORY = SGP/SGP4

EPOCH          = 2026-03-19T22:28:25.585536
MEAN_MOTION    = 14.96240300
ECCENTRICITY   = .00149177
INCLINATION    = 82.5001
RA_OF_ASC_NODE = 269.2630
ARG_OF_PERICENTER = 153.3095
MEAN_ANOMALY   = 206.8898

EPHEMERIS_TYPE = 0
CLASSIFICATION_TYPE = U
NORAD_CAT_ID   = 22236
ELEMENT_SET_NO = 999
REV_AT_EPOCH   = 78232
BSTAR          = .15551531E-3
MEAN_MOTION_DOT = .1784E-4
MEAN_MOTION_DDOT = 0

CCSDS_OMM_VERS = 2.0
CREATION_DATE  = 
ORIGINATOR     = 

OBJECT_NAME    = SL-16 R/B
OBJECT_ID      = 1992-093B
CENTER_NAME    = EARTH
REF_FRAME      = TEME
TIME_SYSTEM    = UTC
MEAN_ELEMENT_THEORY = SGP/SGP4

EPOCH          = 2026-03-19T21:59:03.142176
MEAN_MOTION    = 14.15448558
ECCENTRICITY   = .00062999
INCLINATION    = 71.0238
RA_OF_ASC_NODE = 342.8002
ARG_OF_PERICENTER = 283.3500
MEAN_ANOMALY   = 76.6920

EPHEMERIS_TYPE = 0
CLASSIFICATION_TYPE = U
NORAD_CAT_ID   = 22285
ELEMENT_SET_NO = 999
REV_AT_EPOCH   = 71460
BSTAR          = .14889654E-3
MEAN_MOTION_DOT = .243E-5
MEAN_MOTION_DDOT = 0

CCSDS_OMM_VERS = 2.0
CREATION_DATE  = 
ORIGINATOR     = 

OBJECT_NAME    = COSMOS 2228
OBJECT_ID      = 1992-094A
CENTER_NAME    = EARTH
REF_FRAME      = TEME
TIME_SYSTEM    = UTC
MEAN_ELEMENT_THEORY = SGP/SGP4

EPOCH          = 2026-03-19T21:05:54.926016
MEAN_MOTION    = 14.97240762
ECCENTRICITY   = .00166061
INCLINATION    = 82.5170
RA_OF_ASC_NODE = 227.5535
ARG_OF_PERICENTER = 267.5301
MEAN_ANOMALY   = 92.4021

EPHEMERIS_TYPE = 0
CLASSIFICATION_TYPE = U
NORAD_CAT_ID   = 22286
ELEMENT_SET_NO = 999
REV_AT_EPOCH   = 77758
BSTAR          = .18913572E-3
MEAN_MOTION_DOT = .222E-4
MEAN_MOTION_DDOT = 0

CCSDS_OMM_VERS = 2.0
CREATION_DATE  = 
ORIGINATOR     = 

OBJECT_NAME    = SL-16 R/B
OBJECT_ID      = 1993-016B
CENTER_NAME    = EARTH
REF_FRAME      = TEME
TIME_SYSTEM    = UTC
MEAN_ELEMENT_THEORY = SGP/SGP4

EPOCH          = 2026-03-19T17:53:21.709824
MEAN_MOTION    = 14.15307490
ECCENTRICITY   = .00123069
INCLINATION    = 71.0082
RA_OF_ASC_NODE = 194.0624
ARG_OF_PERICENTER = 301.0467
MEAN_ANOMALY   = 58.9447

EPHEMERIS_TYPE = 0
CLASSIFICATION_TYPE = U
NORAD_CAT_ID   = 22566
ELEMENT_SET_NO = 999
REV_AT_EPOCH   = 70359
BSTAR          = -.11182463E-3
MEAN_MOTION_DOT = -.266E-5
MEAN_MOTION_DDOT = 0

