ERS-1                   
1 21574U 91050A   26078.91542809  .00000245  00000+0  92955-4 0  9999
2 21574  98.7874  97.4068 0032192 170.0339 190.1493 14.39456688817207
ARIANE 40 R/B           
1 21610U 91050F   26078.73401531  .00000227  00000+0  80428-4 0  9998
2 21610  98.1991 130.5926 0004025  59.2133 300.9453 14.42900485820448
INTERCOSMOS 25          
1 21819U 91086A   26078.64629116  .00001520  00000+0  29058-3 0  9997
2 21819  82.6036 303.9901 1486828  95.4818 281.7071 12.12033886497892
SL-8 R/B                
1 21876U 92008B   26078.91211848  .00000004  00000+0 -11722-4 0  9991
2 21876  82.9223 260.1717 0035873 105.6760   4.6014 13.75969643710823
SL-8 R/B                
1 21938U 92020B   26078.67662462  .00000053  00000+0  39806-4 0  9995
2 21938  82.9321 146.3473 0027543 269.5873 246.2146 13.75550179702501
USA 81                  
1 21949U 92023A   26078.36901786  .00000167  00000+0  54457-4 0  9996
2 21949  85.0066 125.8563 0002182  70.6968 289.4460 14.32371033 96174
COSMOS 2219             
1 22219U 92076A   26078.91948506 -.00000144  00000+0 -50617-4 0  9998
2 22219  71.0640 356.6852 0018385 192.6943 167.3719 14.14093180719822
SL-16 R/B               
1 22220U 92076B   26078.74341111  .00000274  00000+0  16022-3 0  9993
2 22220  71.0006 167.1976 0010619  77.7650  93.8870 14.16860856723259
COSMOS 2221             
1 22236U 92080A   26078.93640724  .00001784  00000+0  15552-3 0  9992
2 22236  82.5001 269.2630 0014917 153.3095 206.8898 14.96240300782321
SL-16 R/B               
1 22285U 92093B   26078.91600859  .00000243  00000+0  14890-3 0  9996
2 22285  71.0238 342.8002 0006299 283.3500  76.6920 14.15448558714601
COSMOS 2228             
1 22286U 92094A   26078.87910794  .00002220  00000+0  18914-3 0  9993
2 22286  82.5170 227.5535 0016606 267.5301  92.4021 14.97240762777581
SL-16 R/B               
1 22566U 93016B   26078.74539016 -.00000266  00000+0 -11182-3 0  9999
2 22566  71.0082 194.0624 0012306 301.0467  58.9447 14.15307490703595
